{
    "links": {
        "self": "http://www.neowsapp.com/rest/v1/neo/3552668?api_key=iIulBulltgU6a56xZRHN4H3l9WmuAYTsLGpBGhQ2"
    },
    "id": "3552668",
    "neo_reference_id": "3552668",
    "name": "(2010 XB)",
    "designation": "2010 XB",
    "nasa_jpl_url": "http://ssd.jpl.nasa.gov/sbdb.cgi?sstr=3552668",
    "absolute_magnitude_h": 29.6,
    "estimated_diameter": {
        "kilometers": {
            "estimated_diameter_min": 0.0031956189,
            "estimated_diameter_max": 0.007145621
        },
        "meters": {
            "estimated_diameter_min": 3.1956188672,
            "estimated_diameter_max": 7.1456210173
        },
        "miles": {
            "estimated_diameter_min": 0.0019856649,
            "estimated_diameter_max": 0.0044400817
        },
        "feet": {
            "estimated_diameter_min": 10.4843142043,
            "estimated_diameter_max": 23.4436392583
        }
    },
    "is_potentially_hazardous_asteroid": false,
    "close_approach_data": [
        {
            "close_approach_date": "2010-11-30",
            "close_approach_date_full": "2010-Nov-30 16:12",
            "epoch_date_close_approach": 1291133520000,
            "relative_velocity": {
                "kilometers_per_second": "20.8219404508",
                "kilometers_per_hour": "74958.9856227389",
                "miles_per_hour": "46576.5985943068"
            },
            "miss_distance": {
                "astronomical": "0.0023163843",
                "lunar": "0.9010734927",
                "kilometers": "346526.157381441",
                "miles": "215321.3696122458"
            },
            "orbiting_body": "Moon"
        },
        {
            "close_approach_date": "2010-11-30",
            "close_approach_date_full": "2010-Nov-30 18:08",
            "epoch_date_close_approach": 1291140480000,
            "relative_velocity": {
                "kilometers_per_second": "20.0836645009",
                "kilometers_per_hour": "72301.1922033124",
                "miles_per_hour": "44925.1491221082"
            },
            "miss_distance": {
                "astronomical": "0.000353641",
                "lunar": "0.137566349",
                "kilometers": "52903.94034467",
                "miles": "32872.984189646"
            },
            "orbiting_body": "Earth"
        }
    ],
    "orbital_data": {
        "orbit_id": "7",
        "orbit_determination_date": "2017-04-06 08:55:31",
        "first_observation_date": "2010-12-01",
        "last_observation_date": "2010-12-02",
        "data_arc_in_days": 1,
        "observations_used": 13,
        "orbit_uncertainty": "8",
        "minimum_orbit_intersection": ".00035942",
        "jupiter_tisserand_invariant": "3.780",
        "epoch_osculation": "2455532.5",
        "eccentricity": ".658606704698337",
        "semi_major_axis": "1.796971098323761",
        "inclination": "1.49529183141955",
        "ascending_node_longitude": "249.0218737491867",
        "orbital_period": "879.8528904990129",
        "perihelion_distance": ".6134738848185973",
        "perihelion_argument": "92.01141052624243",
        "aphelion_distance": "2.980468311828925",
        "perihelion_time": "2455484.154936556335",
        "mean_anomaly": "19.78083271380573",
        "mean_motion": ".4091593082064255",
        "equinox": "J2000",
        "orbit_class": {
            "orbit_class_type": "APO",
            "orbit_class_description": "Near-Earth asteroid orbits which cross the Earth’s orbit similar to that of 1862 Apollo",
            "orbit_class_range": "a (semi-major axis) > 1.0 AU; q (perihelion) < 1.017 AU"
        }
    },
    "is_sentry_object": false
}